[Satellite]
VERSION=1.1
NAME=SORCE
NICKNAME=SORCE
TLE1=1 27651U 03004A   22342.38161756  .00002019  00000+0  21628-3 0  9991
TLE2=2 27651  39.9965 325.9859 0023616 256.5786 103.2371 14.90474397 79025
STATUS=0
